{
  "type": "FeatureCollection",
  "features": [
    {
      "type": "Feature",
      "properties": {
        "norad_id": 38250,
        "name": "BEIDOU-2 M3 (C11)",
        "group": "beidou",
        "lat": -9.386138379788095,
        "lon": -55.10670675569999,
        "alt_km": 21511.48454145881,
        "timestamp": "2025-12-07T11:27:50.267049+00:00",
        "meta_object_name": "BEIDOU-2 M3 (C11)",
        "meta_object_id": "2012-018A",
        "meta_epoch": "2025-12-05T21:12:32.531040",
        "meta_mean_motion": 1.86229708,
        "meta_eccentricity": 0.00244284,
        "meta_inclination": 55.926,
        "meta_ra_of_asc_node": 311.388,
        "meta_arg_of_pericenter": 273.8805,
        "meta_mean_anomaly": 85.8231,
        "meta_ephemeris_type": 0,
        "meta_classification_type": "U",
        "meta_norad_cat_id": 38250,
        "meta_element_set_no": 999,
        "meta_rev_at_epoch": 9234,
        "meta_bstar": 0,
        "meta_mean_motion_dot": -7e-07,
        "meta_mean_motion_ddot": 0,
        "tle_line1": "1 38250U 12018A   25339.88370985 -.00000070  00000+0  00000+0 0  9996",
        "tle_line2": "2 38250  55.9260 311.3880 0024428 273.8805  85.8231  1.86229708 92342"
      },
      "geometry": {
        "type": "Point",
        "coordinates": [
          -55.10670675569999,
          -9.386138379788095
        ]
      }
    },
    {
      "type": "Feature",
      "properties": {
        "norad_id": 38251,
        "name": "BEIDOU-2 M4 (C12)",
        "group": "beidou",
        "lat": 27.71057549681598,
        "lon": -28.563692193220056,
        "alt_km": 21544.640092468304,
        "timestamp": "2025-12-07T11:27:50.267061+00:00",
        "meta_object_name": "BEIDOU-2 M4 (C12)",
        "meta_object_id": "2012-018B",
        "meta_epoch": "2025-12-05T06:41:27.869856",
        "meta_mean_motion": 1.86229397,
        "meta_eccentricity": 0.00155808,
        "meta_inclination": 55.8281,
        "meta_ra_of_asc_node": 310.638,
        "meta_arg_of_pericenter": 277.012,
        "meta_mean_anomaly": 82.7935,
        "meta_ephemeris_type": 0,
        "meta_classification_type": "U",
        "meta_norad_cat_id": 38251,
        "meta_element_set_no": 999,
        "meta_rev_at_epoch": 9233,
        "meta_bstar": 0,
        "meta_mean_motion_dot": -6.9e-07,
        "meta_mean_motion_ddot": 0,
        "tle_line1": "1 38251U 12018B   25339.27879479 -.00000069  00000+0  00000+0 0  9990",
        "tle_line2": "2 38251  55.8281 310.6380 0015580 277.0120  82.7935  1.86229397 92337"
      },
      "geometry": {
        "type": "Point",
        "coordinates": [
          -28.563692193220056,
          27.71057549681598
        ]
      }
    },
    {
      "type": "Feature",
      "properties": {
        "norad_id": 38775,
        "name": "BEIDOU-2 M6 (C14)",
        "group": "beidou",
        "lat": -38.17377744159073,
        "lon": -79.25590760633659,
        "alt_km": 21547.06758298741,
        "timestamp": "2025-12-07T11:27:50.267072+00:00",
        "meta_object_name": "BEIDOU-2 M6 (C14)",
        "meta_object_id": "2012-050B",
        "meta_epoch": "2025-12-06T01:31:40.709568",
        "meta_mean_motion": 1.86230702,
        "meta_eccentricity": 0.00109743,
        "meta_inclination": 56.3728,
        "meta_ra_of_asc_node": 69.289,
        "meta_arg_of_pericenter": 345.7667,
        "meta_mean_anomaly": 14.2153,
        "meta_ephemeris_type": 0,
        "meta_classification_type": "U",
        "meta_norad_cat_id": 38775,
        "meta_element_set_no": 999,
        "meta_rev_at_epoch": 8971,
        "meta_bstar": 0,
        "meta_mean_motion_dot": -4.7e-07,
        "meta_mean_motion_ddot": 0,
        "tle_line1": "1 38775U 12050B   25340.06366562 -.00000047  00000+0  00000+0 0  9996",
        "tle_line2": "2 38775  56.3728  69.2890 0010974 345.7667  14.2153  1.86230702 89716"
      },
      "geometry": {
        "type": "Point",
        "coordinates": [
          -79.25590760633659,
          -38.17377744159073
        ]
      }
    },
    {
      "type": "Feature",
      "properties": {
        "norad_id": 38953,
        "name": "BEIDOU-2 G6 (C02)",
        "group": "beidou",
        "lat": -3.8388319031345355,
        "lon": -27.57826070687655,
        "alt_km": 35760.21611410203,
        "timestamp": "2025-12-07T11:27:50.267084+00:00",
        "meta_object_name": "BEIDOU-2 G6 (C02)",
        "meta_object_id": "2012-059A",
        "meta_epoch": "2025-12-06T22:18:37.478016",
        "meta_mean_motion": 1.00270241,
        "meta_eccentricity": 0.00075789,
        "meta_inclination": 3.9339,
        "meta_ra_of_asc_node": 75.5599,
        "meta_arg_of_pericenter": 289.2612,
        "meta_mean_anomaly": 129.8378,
        "meta_ephemeris_type": 0,
        "meta_classification_type": "U",
        "meta_norad_cat_id": 38953,
        "meta_element_set_no": 999,
        "meta_rev_at_epoch": 4798,
        "meta_bstar": 0,
        "meta_mean_motion_dot": -1.72e-06,
        "meta_mean_motion_ddot": 0,
        "tle_line1": "1 38953U 12059A   25340.92960044 -.00000172  00000+0  00000+0 0  9992",
        "tle_line2": "2 38953   3.9339  75.5599 0007578 289.2612 129.8378  1.00270241 47987"
      },
      "geometry": {
        "type": "Point",
        "coordinates": [
          -27.57826070687655,
          -3.8388319031345355
        ]
      }
    },
    {
      "type": "Feature",
      "properties": {
        "norad_id": 40748,
        "name": "BEIDOU-3S M2S (C58)",
        "group": "beidou",
        "lat": -52.86689579726267,
        "lon": -163.97317405298483,
        "alt_km": 21500.010417686455,
        "timestamp": "2025-12-07T11:27:50.267095+00:00",
        "meta_object_name": "BEIDOU-3S M2S (C58)",
        "meta_object_id": "2015-037A",
        "meta_epoch": "2025-12-04T09:50:19.277376",
        "meta_mean_motion": 1.86229056,
        "meta_eccentricity": 0.00124004,
        "meta_inclination": 55.0462,
        "meta_ra_of_asc_node": 308.7497,
        "meta_arg_of_pericenter": 267.6151,
        "meta_mean_anomaly": 92.2259,
        "meta_ephemeris_type": 0,
        "meta_classification_type": "U",
        "meta_norad_cat_id": 40748,
        "meta_element_set_no": 999,
        "meta_rev_at_epoch": 7049,
        "meta_bstar": 0,
        "meta_mean_motion_dot": -6.8e-07,
        "meta_mean_motion_ddot": 0,
        "tle_line1": "1 40748U 15037A   25338.40994534 -.00000068  00000+0  00000+0 0  9991",
        "tle_line2": "2 40748  55.0462 308.7497 0012400 267.6151  92.2259  1.86229056 70498"
      },
      "geometry": {
        "type": "Point",
        "coordinates": [
          -163.97317405298483,
          -52.86689579726267
        ]
      }
    },
    {
      "type": "Feature",
      "properties": {
        "norad_id": 40749,
        "name": "BEIDOU-3S M1S (C57)",
        "group": "beidou",
        "lat": 53.29010267531401,
        "lon": 58.949773597087784,
        "alt_km": 21522.103849693027,
        "timestamp": "2025-12-07T11:27:50.267107+00:00",
        "meta_object_name": "BEIDOU-3S M1S (C57)",
        "meta_object_id": "2015-037B",
        "meta_epoch": "2025-12-01T22:57:46.412352",
        "meta_mean_motion": 1.86253762,
        "meta_eccentricity": 0.0003321,
        "meta_inclination": 55.0451,
        "meta_ra_of_asc_node": 308.8236,
        "meta_arg_of_pericenter": 355.9906,
        "meta_mean_anomaly": 3.9975,
        "meta_ephemeris_type": 0,
        "meta_classification_type": "U",
        "meta_norad_cat_id": 40749,
        "meta_element_set_no": 999,
        "meta_rev_at_epoch": 7045,
        "meta_bstar": 0,
        "meta_mean_motion_dot": -6e-07,
        "meta_mean_motion_ddot": 0,
        "tle_line1": "1 40749U 15037B   25335.95678718 -.00000060  00000+0  00000+0 0  9994",
        "tle_line2": "2 40749  55.0451 308.8236 0003321 355.9906   3.9975  1.86253762 70451"
      },
      "geometry": {
        "type": "Point",
        "coordinates": [
          58.949773597087784,
          53.29010267531401
        ]
      }
    },
    {
      "type": "Feature",
      "properties": {
        "norad_id": 40938,
        "name": "BEIDOU-3S IGSO-2S (C56)",
        "group": "beidou",
        "lat": 49.03366783211432,
        "lon": -20.02858047679594,
        "alt_km": 35850.09580571996,
        "timestamp": "2025-12-07T11:27:50.267118+00:00",
        "meta_object_name": "BEIDOU-3S IGSO-2S (C56)",
        "meta_object_id": "2015-053A",
        "meta_epoch": "2025-12-03T17:17:32.013024",
        "meta_mean_motion": 1.0027148,
        "meta_eccentricity": 0.00611089,
        "meta_inclination": 49.5266,
        "meta_ra_of_asc_node": 261.1136,
        "meta_arg_of_pericenter": 188.632,
        "meta_mean_anomaly": 338.5579,
        "meta_ephemeris_type": 0,
        "meta_classification_type": "U",
        "meta_norad_cat_id": 40938,
        "meta_element_set_no": 999,
        "meta_rev_at_epoch": 3739,
        "meta_bstar": 0,
        "meta_mean_motion_dot": -1.53e-06,
        "meta_mean_motion_ddot": 0,
        "tle_line1": "1 40938U 15053A   25337.72050941 -.00000153  00000+0  00000+0 0  9994",
        "tle_line2": "2 40938  49.5266 261.1136 0061108 188.6320 338.5579  1.00271480 37397"
      },
      "geometry": {
        "type": "Point",
        "coordinates": [
          -20.02858047679594,
          49.03366783211432
        ]
      }
    }
  ]
}